BADR-5                  
1 36592U 10025A   26200.48380806  .00000149  00000+0  00000+0 0  9992
2 36592   0.0578 111.1700 0005337  83.3446 307.3824  1.00273168 53546
COMS 1                  
1 36744U 10032A   26200.46690797 -.00000211  00000+0  00000+0 0  9991
2 36744   4.8863  74.9675 0011395  15.0539 320.3988  0.99166959 51402
ARABSAT-5A              
1 36745U 10032B   26200.48380806  .00000149  00000+0  00000+0 0  9990
2 36745   0.1207  68.2379 0005395  55.3835  18.3200  1.00269326 58975
ECHOSTAR 15             
1 36792U 10034A   26200.52549407 -.00000005  00000+0  00000+0 0  9995
2 36792   0.0379 264.6537 0001937 197.4914 265.5419  1.00273290 58645
BEIDOU-2 IGSO-1         
1 36828U 10036A   26198.83967113 -.00000112  00000+0  00000+0 0  9994
2 36828  54.3070 162.6827 0058852 225.1686 317.0611  1.00263080 58404
NILESAT 201             
1 36830U 10037A   26200.33378904 -.00000063  00000+0  00000+0 0  9996
2 36830   0.0424 227.7572 0005020 266.3096 276.2200  1.00270921 58692
RASCOM-QAF 1R           
1 36831U 10037B   26200.54950086  .00000014  00000+0  00000+0 0  9992
2 36831   0.0145  75.1034 0006141  33.8172  29.1275  1.00271495 58636
AEHF-1 (USA 214)        
1 36868U 10039A   26200.26970160  .00000139  00000+0  00000+0 0  9996
2 36868   8.2983  67.6285 0003906  37.3854 319.1535  1.00277081 53972
XM-5                    
1 37185U 10053A   26200.45391889 -.00000028  00000+0  00000+0 0  9999
2 37185   0.0603 264.1907 0001267 319.0029 122.2610  1.00272395 57807
BSAT-3B                 
1 37207U 10056B   26200.59547637 -.00000354  00000+0  00000+0 0  9998
2 37207   0.0644 242.6003 0002745 294.8398  84.1520  1.00271859 52429
BEIDOU-2 G4             
1 37210U 10057A   26200.50946067 -.00000119  00000+0  00000+0 0  9993
2 37210   3.7257  68.7488 0005457 185.8434  26.0421  1.00272622 57610
SKYTERRA 1              
1 37218U 10061A   26200.52896076 -.00000125  00000+0  00000+0 0  9999
2 37218   5.1923  50.8021 0002612  28.0859 307.5154  1.00271940 57519
HYLAS 1                 
1 37237U 10065A   26200.20008044  .00000118  00000+0  00000+0 0  9990
2 37237   5.7227  72.6231 0001176 139.9160 194.1862  1.00643417  7208
INTELSAT 17 (IS-17)     
1 37238U 10065B   26200.56209443 -.00000006  00000+0  00000+0 0  9993
2 37238   0.0089  93.5347 0002570  37.0769  75.0885  1.00272641 53575
BEIDOU-2 IGSO-2         
1 37256U 10068A   26198.92294310 -.00000202  00000+0  00000+0 0  9997
2 37256  47.4899 271.4483 0056956 213.9138 250.9288  1.00272861 57107
EUTELSAT KA-SAT 9A      
1 37258U 10069A   26200.33699572  .00000057  00000+0  00000+0 0  9995
2 37258   0.0614   6.6681 0004572 140.3434 280.4181  1.00271972 44328
HISPASAT 30W-5          
1 37264U 10070A   26200.40049269 -.00000221  00000+0  00000+0 0  9998
2 37264   0.0369 106.9189 0005802  21.9336 282.4879  1.00269908 53503
KOREASAT 6              
1 37265U 10070B   26200.53867965 -.00000116  00000+0  00000+0 0  9997
2 37265   0.0189  79.6352 0002710  50.3856 161.1149  1.00271421 57094
BEIDOU-2 IGSO-3         
1 37384U 11013A   26200.49843839 -.00000176  00000+0  00000+0 0  9992
2 37384  62.4524  39.8452 0035663 183.4558 359.6554  1.00259758 55989
INTELSAT 28 (IS-28)     
1 37392U 11016A   26200.40014602 -.00000230  00000+0  00000+0 0  9994
2 37392   1.8876  82.2336 0003863  41.7491 285.5498  1.00271685 53601
YAHSAT 1A               
1 37393U 11016B   26200.55946756  .00000000  00000+0  00000+0 0  9999
2 37393   0.0211  68.3448 0003319  46.4187  76.4999  1.00269830 42739
SBIRS GEO-1 (USA 230)   
1 37481U 11019A   26200.55929422  .00000093  00000+0  00000+0 0  9993
2 37481   4.6051  53.0922 0001845  61.0995  76.3048  1.00272243 55728
TELSTAR 14R             
1 37602U 11021A   26200.53251411 -.00000054  00000+0  00000+0 0  9993
2 37602   0.0947  84.8641 0008052 293.5827  26.9958  0.98982315 56153
GSAT-8                  
1 37605U 11022A   26200.55998757  .00000079  00000+0  00000+0 0  9996
2 37605   2.2129  81.4300 0002568 153.5033 319.0884  1.00271184 53540
ST-2                    
1 37606U 11022B   26200.56651444 -.00000215  00000+0  00000+0 0  9990
2 37606   0.0209  86.0491 0001723  48.3687  94.8977  1.00271314 55601
ZHONGXING-10            
1 37677U 11026A   26200.56599444 -.00000193  00000+0  00000+0 0  9998
2 37677   1.1293  83.8314 0003394  19.7870 122.9878  1.00273221 55326
SES-3                   
1 37748U 11035A   26200.52861410 -.00000107  00000+0  00000+0 0  9993
2 37748   1.4083  82.7329 0002136  35.5590 266.3331  1.00271806 54915
KAZSAT-2                
1 37749U 11035B   26200.35233579 -.00000203  00000+0  00000+0 0  9991
2 37749   0.0269 112.7678 0002031  56.9121 340.8164  1.00272472 53729
BEIDOU-2 IGSO-4         
1 37763U 11038A   26199.86161028 -.00000026  00000+0  00000+0 0  9995
2 37763  54.6051 165.3909 0160237 231.4789 304.3437  1.00278571 54964
ASTRA 1N                
1 37775U 11041A   26200.55288087  .00000115  00000+0  00000+0 0  9994
2 37775   0.0639  18.8770 0005940  97.2983  39.3703  1.00272043 44851
BSAT-3C (JCSAT-110R)    
1 37776U 11041B   26200.59547575 -.00000355  00000+0  00000+0 0  9996
2 37776   0.0302 312.2276 0000197 230.6629  78.8139  1.00272167 50798
PAKSAT-1R               
1 37779U 11042A   26200.48528139  .00000149  00000+0  00000+0 0  9993
2 37779   0.7709  84.2985 0003181 353.8182  71.8075  1.00271203 54808
