OBJECT_NAME,OBJECT_ID,EPOCH,MEAN_MOTION,ECCENTRICITY,INCLINATION,RA_OF_ASC_NODE,ARG_OF_PERICENTER,MEAN_ANOMALY,EPHEMERIS_TYPE,CLASSIFICATION_TYPE,NORAD_CAT_ID,ELEMENT_SET_NO,REV_AT_EPOCH,BSTAR,MEAN_MOTION_DOT,MEAN_MOTION_DDOT
BADR-5,2010-025A,2026-07-19T11:36:41.016384,1.00273168,.00053372,0.0578,111.1700,83.3446,307.3824,0,U,36592,999,5354,0,.149E-5,0
COMS 1,2010-032A,2026-07-19T11:12:20.848608,0.99166959,.00113959,4.8863,74.9675,15.0539,320.3988,0,U,36744,999,5140,0,-.211E-5,0
ARABSAT-5A,2010-032B,2026-07-19T11:36:41.016384,1.00269326,.00053953,0.1207,68.2379,55.3835,18.3200,0,U,36745,999,5897,0,.149E-5,0
ECHOSTAR 15,2010-034A,2026-07-19T12:36:42.687648,1.00273290,.00019377,0.0379,264.6537,197.4914,265.5419,0,U,36792,999,5864,0,-.5E-7,0
BEIDOU-2 IGSO-1,2010-036A,2026-07-17T20:09:07.585632,1.00263080,.00588528,54.3070,162.6827,225.1686,317.0611,0,U,36828,999,5840,0,-.112E-5,0
NILESAT 201,2010-037A,2026-07-19T08:00:39.373056,1.00270921,.00050203,0.0424,227.7572,266.3096,276.2200,0,U,36830,999,5869,0,-.63E-6,0
RASCOM-QAF 1R,2010-037B,2026-07-19T13:11:16.874304,1.00271495,.00061417,0.0145,75.1034,33.8172,29.1275,0,U,36831,999,5863,0,.14E-6,0
AEHF-1 (USA 214),2010-039A,2026-07-19T06:28:22.218240,1.00277081,.00039061,8.2983,67.6285,37.3854,319.1535,0,U,36868,999,5397,0,.139E-5,0
XM-5,2010-053A,2026-07-19T10:53:38.592096,1.00272395,.00012671,0.0603,264.1907,319.0029,122.2610,0,U,37185,999,5780,0,-.28E-6,0
BSAT-3B,2010-056B,2026-07-19T14:17:29.158368,1.00271859,.00027453,0.0644,242.6003,294.8398,84.1520,0,U,37207,999,5242,0,-.354E-5,0
BEIDOU-2 G4,2010-057A,2026-07-19T12:13:37.401888,1.00272622,.0005457,3.7257,68.7488,185.8434,26.0421,0,U,37210,999,5761,0,-.119E-5,0
SKYTERRA 1,2010-061A,2026-07-19T12:41:42.209664,1.00271940,.00026125,5.1923,50.8021,28.0859,307.5154,0,U,37218,999,5751,0,-.125E-5,0
HYLAS 1,2010-065A,2026-07-19T04:48:06.950016,1.00643417,.00011765,5.7227,72.6231,139.9160,194.1862,0,U,37237,999,720,0,.118E-5,0
INTELSAT 17 (IS-17),2010-065B,2026-07-19T13:29:24.958752,1.00272641,.00025706,0.0089,93.5347,37.0769,75.0885,0,U,37238,999,5357,0,-.6E-7,0
BEIDOU-2 IGSO-2,2010-068A,2026-07-17T22:09:02.283840,1.00272861,.00569562,47.4899,271.4483,213.9138,250.9288,0,U,37256,999,5710,0,-.202E-5,0
EUTELSAT KA-SAT 9A,2010-069A,2026-07-19T08:05:16.430208,1.00271972,.00045724,0.0614,6.6681,140.3434,280.4181,0,U,37258,999,4432,0,.57E-6,0
HISPASAT 30W-5,2010-070A,2026-07-19T09:36:42.568416,1.00269908,.00058022,0.0369,106.9189,21.9336,282.4879,0,U,37264,999,5350,0,-.221E-5,0
KOREASAT 6,2010-070B,2026-07-19T12:55:41.921760,1.00271421,.00027105,0.0189,79.6352,50.3856,161.1149,0,U,37265,999,5709,0,-.116E-5,0
BEIDOU-2 IGSO-3,2011-013A,2026-07-19T11:57:45.076896,1.00259758,.00356634,62.4524,39.8452,183.4558,359.6554,0,U,37384,999,5598,0,-.176E-5,0
INTELSAT 28 (IS-28),2011-016A,2026-07-19T09:36:12.616128,1.00271685,.0003863,1.8876,82.2336,41.7491,285.5498,0,U,37392,999,5360,0,-.23E-5,0
YAHSAT 1A,2011-016B,2026-07-19T13:25:37.997184,1.00269830,.00033198,0.0211,68.3448,46.4187,76.4999,0,U,37393,999,4273,0,0,0
SBIRS GEO-1 (USA 230),2011-019A,2026-07-19T13:25:23.020608,1.00272243,.00018459,4.6051,53.0922,61.0995,76.3048,0,U,37481,999,5572,0,.93E-6,0
TELSTAR 14R,2011-021A,2026-07-19T12:46:49.219104,0.98982315,.00080527,0.0947,84.8641,293.5827,26.9958,0,U,37602,999,5615,0,-.54E-6,0
GSAT-8,2011-022A,2026-07-19T13:26:22.926048,1.00271184,.0002568,2.2129,81.4300,153.5033,319.0884,0,U,37605,999,5354,0,.79E-6,0
ST-2,2011-022B,2026-07-19T13:35:46.847616,1.00271314,.00017236,0.0209,86.0491,48.3687,94.8977,0,U,37606,999,5560,0,-.215E-5,0
ZHONGXING-10,2011-026A,2026-07-19T13:35:01.919616,1.00273221,.0003394,1.1293,83.8314,19.7870,122.9878,0,U,37677,999,5532,0,-.193E-5,0
SES-3,2011-035A,2026-07-19T12:41:12.258240,1.00271806,.00021364,1.4083,82.7329,35.5590,266.3331,0,U,37748,999,5491,0,-.107E-5,0
KAZSAT-2,2011-035B,2026-07-19T08:27:21.812256,1.00272472,.00020318,0.0269,112.7678,56.9121,340.8164,0,U,37749,999,5372,0,-.203E-5,0
BEIDOU-2 IGSO-4,2011-038A,2026-07-18T20:40:43.128192,1.00278571,.01602377,54.6051,165.3909,231.4789,304.3437,0,U,37763,999,5496,0,-.26E-6,0
ASTRA 1N,2011-041A,2026-07-19T13:16:08.907168,1.00272043,.000594,0.0639,18.8770,97.2983,39.3703,0,U,37775,999,4485,0,.115E-5,0
BSAT-3C (JCSAT-110R),2011-041B,2026-07-19T14:17:29.104800,1.00272167,.0000197,0.0302,312.2276,230.6629,78.8139,0,U,37776,999,5079,0,-.355E-5,0
PAKSAT-1R,2011-042A,2026-07-19T11:38:48.312096,1.00271203,.00031811,0.7709,84.2985,353.8182,71.8075,0,U,37779,999,5480,0,.149E-5,0
